SSOT                    
1 38011U 11076E   25109.24800206  .00002376  00000+0  30675-3 0  9998
2 38011  97.8599 173.4954 0001726  90.9215   1.3645 14.81905556721594
PLEIADES 1A             
1 38012U 11076F   25109.10921365  .00000739  00000+0  16880-3 0  9997
2 38012  98.1996 185.2260 0001440  83.9229  29.7298 14.58563497710180
NIGCOMSAT 1R            
1 38014U 11077A   25108.18504039  .00000154  00000+0  00000+0 0  9996
2 38014   0.0598  61.5497 0001014 358.8818 255.2208  1.00270512 48777
ZIYUAN 1-02C (ZY 1-02C) 
1 38038U 11079A   25109.24166714  .00000870  00000+0  30384-3 0  9993
2 38038  98.4560 179.3037 0007539 129.9042 266.3900 14.37699399698332
GLOBALSTAR M084         
1 38040U 11080A   25108.52924348 -.00000079  00000+0  14014-3 0  9997
2 38040  52.0005 230.0939 0000408 144.6367 295.8247 12.62265010615417
GLOBALSTAR M080         
1 38041U 11080B   25107.80853491 -.00000077  00000+0  14999-3 0  9998
2 38041  52.0056 233.8725 0000671 158.9161   5.7450 12.62291920615165
GLOBALSTAR M082         
1 38042U 11080C   25108.69256134 -.00000073  00000+0  17132-3 0  9996
2 38042  52.0063 186.6225 0000707  91.3594  71.9342 12.62265425616150
GLOBALSTAR M092         
1 38043U 11080D   25108.90135439 -.00000053  00000+0  28452-3 0  9990
2 38043  52.0078 276.3598 0000711 104.0594  48.8973 12.62263283614672
GLOBALSTAR M090         
1 38044U 11080E   25109.24619457 -.00000084  00000+0  11006-3 0  9997
2 38044  51.9870 178.8215 0000563 112.7739 287.3583 12.62269394616213
GLOBALSTAR M086         
1 38045U 11080F   25109.19064090 -.00000088  00000+0  87401-4 0  9996
2 38045  51.9885 179.5371 0001149 170.8710 217.1085 12.62269497616218
ZIYUAN 3-1 (ZY 3-1)     
1 38046U 12001A   25109.20505213  .00026806  00000+0  46934-3 0  9990
2 38046  97.1994 173.7354 0005408 112.6573 247.5251 15.50566180738061
WGS F4 (USA 233)        
1 38070U 12003A   25109.02475301 -.00000207  00000+0  00000+0 0  9991
2 38070   0.0139 174.9872 0000343   6.7126 122.9688  1.00271780 48467
LARES                   
1 38077U 12006A   25108.87707104 -.00000036  00000+0  17291-4 0  9997
2 38077  69.4884 297.0079 0006401  79.6946 280.4802 12.54931955603931
SES-4                   
1 38087U 12007A   25108.31512906 -.00000159  00000+0  00000+0 0  9993
2 38087   0.0075   9.4934 0002264  32.8882 255.7408  1.00271122 48227
BEIDOU-2 G5             
1 38091U 12008A   25109.18767384  .00000065  00000+0  00000+0 0  9992
2 38091   2.5162  71.2386 0011566 262.8168 359.7632  1.00273885 48223
MUOS-1                  
1 38093U 12009A   25108.44230444 -.00000117  00000+0  00000+0 0  9994
2 38093   4.6236  46.6169 0058498 359.5053 219.9346  1.00271082 48199
INTELSAT 22 (IS-22)     
1 38098U 12011A   25108.11953259 -.00000049  00000+0  00000+0 0  9996
2 38098   0.0134 250.2311 0001693 138.0876 293.2988  1.00270896 47795
APSTAR-7                
1 38107U 12013A   25108.90183666 -.00000094  00000+0  00000+0 0  9993
2 38107   0.0179 216.9353 0002743 186.8550 204.6470  1.00272029 47913
YAHSAT 1B               
1 38245U 12016A   25109.18550183  .00000134  00000+0  00000+0 0  9996
2 38245   0.1005  89.5297 0003276 302.9887 289.3978  1.00271869 47668
BEIDOU-2 M3             
1 38250U 12018A   25108.99450988 -.00000039  00000+0  00000+0 0  9999
2 38250  56.1132 319.1317 0020662 272.1305  87.6625  1.86233730 88394
BEIDOU-2 M4             
1 38251U 12018B   25105.16748619 -.00000061  00000+0  00000+0 0  9992
2 38251  56.0202 318.5083 0011735 278.2137  81.6852  1.86232262 87974
AEHF-2 (USA 235)        
1 38254U 12019A   25109.17273041 -.00000125  00000+0  00000+0 0  9994
2 38254   5.6693  60.2692 0002740 332.8936 220.0586  1.00272164 47428
TIANHUI 1-02            
1 38256U 12020A   25109.24392584  .00040121  00000+0  49567-3 0  9994
2 38256  97.6206 285.5559 0008665 178.4445 181.6840 15.59999499721640
YAOGAN-14               
1 38257U 12021A   25109.19489776  .00013365  00000+0  55700-3 0  9996
2 38257  97.2463 253.5331 0003235 169.2440 190.8867 15.23820204721397
JCSAT-13                
1 38331U 12023A   25107.98700439 -.00000347  00000+0  00000+0 0  9994
2 38331   0.0190 125.9230 0002524 283.0487 276.7167  1.00271746 47316
VINASAT-2               
1 38332U 12023B   25109.17266972 -.00000321  00000+0  00000+0 0  9999
2 38332   0.0079  38.2365 0002505   9.8177 353.4826  1.00272801 47360
GCOM-W1 (SHIZUKU)       
1 38337U 12025A   25108.86220785  .00001202  00000+0  27679-3 0  9996
2 38337  98.1981  50.5594 0001400  77.7746 348.5416 14.57094139687233
ARIRANG-3 (KOMPSAT-3)   
1 38338U 12025B   25109.21602701  .00001168  00000+0  24030-3 0  9998
2 38338  98.3018  62.4863 0007121   4.4172 355.7090 14.62414796689493
SDS-4                   
1 38339U 12025C   25109.20904669  .00001979  00000+0  30408-3 0  9992
2 38339  98.1444 197.5422 0006490 203.5409 156.5503 14.74692721693556
NIMIQ 6                 
1 38342U 12026A   25109.18912258 -.00000167  00000+0  00000+0 0  9997
2 38342   0.0456  69.1516 0002969 321.4381 153.9386  1.00271810 47346
ZHONGXING-2A            
1 38352U 12028A   25108.05332976 -.00000283  00000+0  00000+0 0  9997
2 38352   0.3518  90.8985 0001483 335.6244 257.3325  1.00269779 47371
YAOGAN-15               
1 38354U 12029A   25109.19198919 -.00000009  00000+0  96641-4 0  9990
2 38354 100.7594 300.6069 0025432 169.0021 191.1652 13.18358822619574
INTELSAT 19 (IS-19)     
1 38356U 12030A   25108.78081444 -.00000048  00000+0  00000+0 0  9994
2 38356   0.0120 227.3968 0003054 167.6686 259.1760  1.00271778 47250
NUSTAR                  
1 38358U 12031A   25108.25002315  .00011551  00000+0  77060-3 0  9993
2 38358   6.0288 327.6071 0010073 288.7544 202.0913 15.03139097700167
ECHOSTAR 17             
1 38551U 12035A   25108.48794618 -.00000067  00000+0  00000+0 0  9998
2 38551   0.0186 228.0337 0001984 156.7233 250.6640  1.00270804 46862
METEOSAT-10 (MSG-3)     
1 38552U 12035B   25108.17669987  .00000006  00000+0  00000+0 0  9997
2 38552   3.6671  62.0395 0000869 342.3775 226.2777  1.00264904 46950
SES-5                   
1 38652U 12036A   25109.17698755  .00000041  00000+0  00000+0 0  9994
2 38652   0.0466 308.9863 0002038  85.0725 242.1612  1.00271111 46810
EXACTVIEW-1 (ADS-1B)    
1 38709U 12039C   25108.26778940  .00000295  00000+0  14625-3 0  9997
2 38709  98.9472 211.8919 0010126 320.1953  39.8481 14.24791247662190
MKA-PN 1                
1 38711U 12039E   25108.27186814  .00000341  00000+0  16493-3 0  9991
2 38711  98.9424 211.4924 0010626 317.7629  42.2730 14.25202341662311
COSMOS 2481             
1 38733U 12041A   25108.84062268  .00000023  00000+0  96199-4 0  9996
2 38733  82.4769 339.7824 0017948 282.0988  77.8080 12.42423906577130
GONETS-M 3              
1 38734U 12041B   25109.21218516  .00000026  00000+0  11057-3 0  9990
2 38734  82.4755 330.3568 0015812 271.5105  88.4165 12.44884163577972
GONETS-M 4              
1 38736U 12041D   25109.23166402  .00000024  00000+0  99072-4 0  9992
2 38736  82.4808 335.6934 0024186 260.3068  99.5280 12.43886794577664
INTELSAT 20 (IS-20)     
1 38740U 12043A   25108.04742189 -.00000015  00000+0  00000+0 0  9998
2 38740   0.0103 177.2231 0002678  10.3393 104.4127  1.00271401 46569
HYLAS 2                 
1 38741U 12043B   25108.51934397 -.00000249  00000+0  00000+0 0  9994
2 38741   1.3276  86.3056 0001356 320.0553 275.0098  1.00272306 46591
EXPRESS-MD2             
1 38745U 12044B   25108.81694764  .00062244  53394-5  12110-2 0  9993
2 38745  49.8468 319.3134 1732942 135.3359 240.0939 12.06569262508783
INTELSAT 21 (IS-21)     
1 38749U 12045A   25109.16456365 -.00000278  00000+0  00000+0 0  9992
2 38749   0.0096 210.0038 0001979 189.2488 169.5149  1.00272400 46380
SPOT 6                  
1 38755U 12047A   25109.17262844  .00000760  00000+0  17317-3 0  9997
2 38755  98.1804 177.9263 0001029  93.8704 266.2612 14.58561997671271
SMDC ONE 1.2            
1 38759U 12048B   25108.40727657  .00013840  00000+0  66107-3 0  9999
2 38759  64.6552 116.2687 0138793 295.5741  63.1087 15.11100845 51767
CINEMA                  
1 38764U 12048G   25109.25369573  .00030313  00000+0  10403-2 0  9999
2 38764  64.6526  60.7385 0114234 287.4363  71.4302 15.23939594 52190
SMDC ONE 1.1            
1 38766U 12048J   25109.02984961  .00093785  00000+0  11817-2 0  9992
2 38766  64.6380 332.8774 0066771 283.9679  75.4045 15.56400325 54830
AEROCUBE 4.5A           
1 38767U 12048K   25109.16023709  .00037704  00000+0  10786-2 0  9995
2 38767  64.6498  36.4811 0101706 288.3644  70.6446 15.30682288306945
METOP-B                 
1 38771U 12049A   25109.15442115  .00000241  00000+0  12975-3 0  9995
2 38771  98.5820 164.8052 0001856 117.7668 242.3698 14.21480480653013
BEIDOU-2 M6             
1 38775U 12050B   25108.63612423  .00000016  00000+0  00000+0 0  9996
2 38775  56.1719  76.9731 0014637 339.4766  20.4433  1.86231066 85757
ASTRA 2F                
1 38778U 12051A   25108.53923958  .00000158  00000+0  00000+0 0  9994
2 38778   0.0575 253.8295 0000260 341.1226 194.2816  1.00274385 46037
GSAT-10                 
1 38779U 12051B   25108.90183666 -.00000157  00000+0  00000+0 0  9990
2 38779   0.0724 262.7745 0007227 180.0104 172.1391  1.00271525 46034
VRSS-1                  
1 38782U 12052A   25109.21102121  .00001685  00000+0  23496-3 0  9991
2 38782  97.5766 103.8293 0018382 177.8356 182.2939 14.78827381676928
NAVSTAR 67 (USA 239)    
1 38833U 12053A   25107.53490136  .00000038  00000+0  00000+0 0  9991
2 38833  53.5306 161.0274 0163814  60.1102 301.5891  2.00562252 91790
GSAT0103 (GALILEO-FM3)  
1 38857U 12055A   25107.61388077  .00000060  00000+0  00000+0 0  9993
2 38857  55.5567 113.2343 0006046 283.6494  76.3027  1.70473581 77752
SJ-9A                   
1 38860U 12056A   25109.22767104  .00002403  00000+0  29162-3 0  9996
2 38860  97.6230  93.3216 0025273 209.4456 150.5337 14.84229623675886
